GSAT0101 (PRN E11)      
1 37846U 11060A   22321.35093397 -.00000080  00000+0  00000+0 0  9992
2 37846  57.0444  17.1864 0000749 356.8109   3.2472  1.70475037 68953
GSAT0102 (PRN E12)      
1 37847U 11060B   22320.69268476 -.00000082  00000+0  00000+0 0  9993
2 37847  57.0451  17.2040 0003107 298.6405  64.2925  1.70475426 68820
GSAT0103 (PRN E19)      
1 38857U 12055A   22320.80325590  .00000088  00000+0  00000+0 0  9999
2 38857  55.1829 137.5091 0001938 229.3851 130.6325  1.70473778 62844
GSAT0104 (PRN E20)      
1 38858U 12055B   22320.18654007  .00000083  00000+0  00000+0 0  9994
2 38858  55.1829 137.5275 0001676 140.5631 219.4818  1.70474064 62806
GSAT0201 (PRN E18)      
1 40128U 14050A   22321.28492568 -.00000063  00000+0  00000+0 0  9997
2 40128  50.1774 326.1907 1616630 129.5923 245.8712  1.85519560 55990
GSAT0202 (PRN E14)      
1 40129U 14050B   22319.92840255 -.00000066  00000+0  00000+0 0  9999
2 40129  50.2017 325.3096 1613968 130.3540 244.9318  1.85520243 56193
GSAT0203 (PRN E26)      
1 40544U 15017A   22321.13049719 -.00000081  00000+0  00000+0 0  9993
2 40544  56.8399  17.2048 0004704 243.9781 116.0315  1.70476352 47564
GSAT0204 (PRN E22)      
1 40545U 15017B   22320.21044672 -.00000084  00000+0  00000+0 0  9998
2 40545  56.8457  17.2429 0004663 232.0548 127.9604  1.70475397  9936
GSAT0205 (PRN E24)      
1 40889U 15045A   22321.15119557 -.00000014  00000+0  00000+0 0  9992
2 40889  55.5300 257.7458 0005157   4.4506 355.5563  1.70472961 44719
GSAT0206 (PRN E30)      
1 40890U 15045B   22319.61218317 -.00000014  00000+0  00000+0 0  9996
2 40890  55.5300 257.7841 0003675 350.3883   9.6087  1.70473018 44713
GSAT0209 (PRN E09)      
1 41174U 15079A   22320.95893259  .00000089  00000+0  00000+0 0  9993
2 41174  55.1991 137.2094 0001787 344.0319  15.9968  1.70474546 43050
GSAT0208 (PRN E08)      
1 41175U 15079B   22321.17843744  .00000090  00000+0  00000+0 0  9995
2 41175  55.1983 137.2020 0001356   2.9151 357.1207  1.70474479 43059
GSAT0211 (PRN E02)      
1 41549U 16030A   22320.12442441 -.00000013  00000+0  00000+0 0  9997
2 41549  55.6758 257.7189 0004724 329.4246  30.5517  1.70473038 40353
GSAT0210 (PRN E01)      
1 41550U 16030B   22320.41683334 -.00000013  00000+0  00000+0 0  9999
2 41550  55.6752 257.7123 0003911 301.8050  58.1605  1.70474518 40359
GSAT0207 (PRN E07)      
1 41859U 16069A   22318.90666373  .00000073  00000+0  00000+0 0  9993
2 41859  54.8604 137.4099 0001562 309.7060  50.3093  1.70474234 37066
GSAT0212 (PRN E03)      
1 41860U 16069B   22320.51988603  .00000085  00000+0  00000+0 0  9991
2 41860  54.8583 137.3626 0001616  31.2675 328.7755  1.70473201 37349
GSAT0213 (PRN E04)      
1 41861U 16069C   22319.71196479  .00000079  00000+0  00000+0 0  9997
2 41861  54.8602 137.3904 0001620 246.0598 113.9543  1.70473308 37196
GSAT0214 (PRN E05)      
1 41862U 16069D   22319.85914365  .00000080  00000+0  00000+0 0  9997
2 41862  54.8595 137.3808 0000753 228.4095 131.6155  1.70473284 37327
GSAT0215 (PRN E21)      
1 43055U 17079A   22320.34898418 -.00000013  00000+0  00000+0 0  9998
2 43055  55.6516 257.5430 0003244 299.0661  60.9052  1.70473734 30673
GSAT0216 (PRN E25)      
1 43056U 17079B   22320.05451742 -.00000013  00000+0  00000+0 0  9992
2 43056  55.6528 257.5508 0004877 294.2285  65.7247  1.70473817 30687
GSAT0217 (PRN E27)      
1 43057U 17079C   22320.27479443 -.00000013  00000+0  00000+0 0  9995
2 43057  55.6501 257.5443 0004642 305.5052  54.4554  1.70473823 30677
GSAT0218 (PRN E31)      
1 43058U 17079D   22321.08141492 -.00000013  00000+0  00000+0 0  9996
2 43058  55.6497 257.5196 0005164 289.9401  70.0070  1.70473784 30684
GSAT0221 (PRN E15)      
1 43564U 18060A   22318.63379551 -.00000089  00000+0  00000+0 0  9998
2 43564  57.2206  17.1267 0005011 263.9340  96.0665  1.70476159 26824
GSAT0222 (PRN E33)      
1 43565U 18060B   22320.61341747 -.00000082  00000+0  00000+0 0  9999
2 43565  57.2234  17.0737 0004377 268.7047  91.3033  1.70476193 26902
GSAT0219 (PRN E36)      
1 43566U 18060C   22319.66079067 -.00000085  00000+0  00000+0 0  9999
2 43566  57.2236  17.1016 0003783 265.6262  94.3883  1.70476263 26860
GSAT0220 (PRN E13)      
1 43567U 18060D   22319.29443675 -.00000086  00000+0  00000+0 0  9990
2 43567  57.2232  17.1122 0004762 264.6266  95.3767  1.70476248 26849
GSAT0223                
1 49809U 21116A   22319.15348696 -.00000087  00000+0  00000+0 0  9994
2 49809  57.2155  17.0136 0003562 217.1874 146.4247  1.70476417  5854
GSAT0224                
1 49810U 21116B   22320.09613378 -.00000084  00000+0  00000+0 0  9990
2 49810  57.2163  16.9863 0002756 212.8898 121.7243  1.70476370  5885
